{
  "type": "FeatureCollection",
  "features": [
    {
      "type": "Feature",
      "properties": {
        "norad_id": 24876,
        "name": "GPS BIIR-2  (PRN 13)",
        "group": "gnss",
        "lat": -14.781453666193778,
        "lon": -64.1915677287327,
        "alt_km": 20383.160070924092,
        "timestamp": "2025-12-21T11:31:43.096499+00:00",
        "meta_object_name": "GPS BIIR-2  (PRN 13)",
        "meta_object_id": "1997-035A",
        "meta_epoch": "2025-12-21T05:00:18.122112",
        "meta_mean_motion": 2.00563754,
        "meta_eccentricity": 0.009682,
        "meta_inclination": 55.8993,
        "meta_ra_of_asc_node": 105.5377,
        "meta_arg_of_pericenter": 56.9664,
        "meta_mean_anomaly": 303.9402,
        "meta_ephemeris_type": 0,
        "meta_classification_type": "U",
        "meta_norad_cat_id": 24876,
        "meta_element_set_no": 999,
        "meta_rev_at_epoch": 20838,
        "meta_bstar": 0,
        "meta_mean_motion_dot": 2e-08,
        "meta_mean_motion_ddot": 0,
        "tle_line1": "1 24876U 97035A   25355.20854308  .00000002  00000+0  00000+0 0  9991",
        "tle_line2": "2 24876  55.8993 105.5377 0096820  56.9664 303.9402  2.00563754208381"
      },
      "geometry": {
        "type": "Point",
        "coordinates": [
          -64.1915677287327,
          -14.781453666193778
        ]
      }
    },
    {
      "type": "Feature",
      "properties": {
        "norad_id": 26360,
        "name": "GPS BIIR-4  (PRN 20)",
        "group": "gnss",
        "lat": -50.583261124257604,
        "lon": -31.780111361372754,
        "alt_km": 20116.241610446395,
        "timestamp": "2025-12-21T11:31:43.096548+00:00",
        "meta_object_name": "GPS BIIR-4  (PRN 20)",
        "meta_object_id": "2000-025A",
        "meta_epoch": "2025-12-21T02:11:31.456320",
        "meta_mean_motion": 2.00567058,
        "meta_eccentricity": 0.003889,
        "meta_inclination": 55.0501,
        "meta_ra_of_asc_node": 26.5001,
        "meta_arg_of_pericenter": 242.7753,
        "meta_mean_anomaly": 125.5477,
        "meta_ephemeris_type": 0,
        "meta_classification_type": "U",
        "meta_norad_cat_id": 26360,
        "meta_element_set_no": 999,
        "meta_rev_at_epoch": 18770,
        "meta_bstar": 0,
        "meta_mean_motion_dot": -6.3e-07,
        "meta_mean_motion_ddot": 0,
        "tle_line1": "1 26360U 00025A   25355.09133630 -.00000063  00000+0  00000+0 0  9997",
        "tle_line2": "2 26360  55.0501  26.5001 0038890 242.7753 125.5477  2.00567058187704"
      },
      "geometry": {
        "type": "Point",
        "coordinates": [
          -31.780111361372754,
          -50.583261124257604
        ]
      }
    },
    {
      "type": "Feature",
      "properties": {
        "norad_id": 26407,
        "name": "GPS BIIR-5  (PRN 22)",
        "group": "gnss",
        "lat": 39.69276451463839,
        "lon": 6.518580875789697,
        "alt_km": 20507.643477579713,
        "timestamp": "2025-12-21T11:31:43.096567+00:00",
        "meta_object_name": "GPS BIIR-5  (PRN 22)",
        "meta_object_id": "2000-040A",
        "meta_epoch": "2025-12-21T01:01:32.978784",
        "meta_mean_motion": 2.00568107,
        "meta_eccentricity": 0.0125556,
        "meta_inclination": 54.889,
        "meta_ra_of_asc_node": 222.2388,
        "meta_arg_of_pericenter": 301.9496,
        "meta_mean_anomaly": 230.9465,
        "meta_ephemeris_type": 0,
        "meta_classification_type": "U",
        "meta_norad_cat_id": 26407,
        "meta_element_set_no": 999,
        "meta_rev_at_epoch": 18637,
        "meta_bstar": 0,
        "meta_mean_motion_dot": 7.2e-07,
        "meta_mean_motion_ddot": 0,
        "tle_line1": "1 26407U 00040A   25355.04274281  .00000072  00000+0  00000+0 0  9998",
        "tle_line2": "2 26407  54.8890 222.2388 0125556 301.9496 230.9465  2.00568107186371"
      },
      "geometry": {
        "type": "Point",
        "coordinates": [
          6.518580875789697,
          39.69276451463839
        ]
      }
    },
    {
      "type": "Feature",
      "properties": {
        "norad_id": 27663,
        "name": "GPS BIIR-8  (PRN 16)",
        "group": "gnss",
        "lat": -54.449490145388985,
        "lon": 121.47635973588697,
        "alt_km": 20519.108807931418,
        "timestamp": "2025-12-21T11:31:43.096582+00:00",
        "meta_object_name": "GPS BIIR-8  (PRN 16)",
        "meta_object_id": "2003-005A",
        "meta_epoch": "2025-12-20T15:07:28.763328",
        "meta_mean_motion": 2.00570507,
        "meta_eccentricity": 0.0147742,
        "meta_inclination": 54.9216,
        "meta_ra_of_asc_node": 222.0644,
        "meta_arg_of_pericenter": 51.9121,
        "meta_mean_anomaly": 319.0535,
        "meta_ephemeris_type": 0,
        "meta_classification_type": "U",
        "meta_norad_cat_id": 27663,
        "meta_element_set_no": 999,
        "meta_rev_at_epoch": 16773,
        "meta_bstar": 0,
        "meta_mean_motion_dot": 7.3e-07,
        "meta_mean_motion_ddot": 0,
        "tle_line1": "1 27663U 03005A   25354.63019402  .00000073  00000+0  00000+0 0  9994",
        "tle_line2": "2 27663  54.9216 222.0644 0147742  51.9121 319.0535  2.00570507167733"
      },
      "geometry": {
        "type": "Point",
        "coordinates": [
          121.47635973588697,
          -54.449490145388985
        ]
      }
    },
    {
      "type": "Feature",
      "properties": {
        "norad_id": 28190,
        "name": "GPS BIIR-11 (PRN 19)",
        "group": "gnss",
        "lat": 46.34502418255291,
        "lon": -29.93519759373482,
        "alt_km": 20252.190286435147,
        "timestamp": "2025-12-21T11:31:43.096596+00:00",
        "meta_object_name": "GPS BIIR-11 (PRN 19)",
        "meta_object_id": "2004-009A",
        "meta_epoch": "2025-12-20T02:10:39.105696",
        "meta_mean_motion": 2.00560582,
        "meta_eccentricity": 0.01084506,
        "meta_inclination": 54.979,
        "meta_ra_of_asc_node": 282.9228,
        "meta_arg_of_pericenter": 167.7566,
        "meta_mean_anomaly": 332.1268,
        "meta_ephemeris_type": 0,
        "meta_classification_type": "U",
        "meta_norad_cat_id": 28190,
        "meta_element_set_no": 999,
        "meta_rev_at_epoch": 15935,
        "meta_bstar": 0,
        "meta_mean_motion_dot": -3.4e-07,
        "meta_mean_motion_ddot": 0,
        "tle_line1": "1 28190U 04009A   25354.09073039 -.00000034  00000+0  00000+0 0  9999",
        "tle_line2": "2 28190  54.9790 282.9228 0108450 167.7566 332.1268  2.00560582159351"
      },
      "geometry": {
        "type": "Point",
        "coordinates": [
          -29.93519759373482,
          46.34502418255291
        ]
      }
    },
    {
      "type": "Feature",
      "properties": {
        "norad_id": 28474,
        "name": "GPS BIIR-13 (PRN 02)",
        "group": "gnss",
        "lat": 43.01016435136953,
        "lon": 111.67061768111896,
        "alt_km": 20628.95545296382,
        "timestamp": "2025-12-21T11:31:43.096609+00:00",
        "meta_object_name": "GPS BIIR-13 (PRN 02)",
        "meta_object_id": "2004-045A",
        "meta_epoch": "2025-12-20T07:31:09.755904",
        "meta_mean_motion": 2.00569954,
        "meta_eccentricity": 0.01709047,
        "meta_inclination": 55.2369,
        "meta_ra_of_asc_node": 332.1012,
        "meta_arg_of_pericenter": 309.5849,
        "meta_mean_anomaly": 51.3395,
        "meta_ephemeris_type": 0,
        "meta_classification_type": "U",
        "meta_norad_cat_id": 28474,
        "meta_element_set_no": 999,
        "meta_rev_at_epoch": 15484,
        "meta_bstar": 0,
        "meta_mean_motion_dot": -7.7e-07,
        "meta_mean_motion_ddot": 0,
        "tle_line1": "1 28474U 04045A   25354.31330736 -.00000077  00000+0  00000+0 0  9996",
        "tle_line2": "2 28474  55.2369 332.1012 0170904 309.5849  51.3395  2.00569954154846"
      },
      "geometry": {
        "type": "Point",
        "coordinates": [
          111.67061768111896,
          43.01016435136953
        ]
      }
    },
    {
      "type": "Feature",
      "properties": {
        "norad_id": 28874,
        "name": "GPS BIIRM-1 (PRN 17)",
        "group": "gnss",
        "lat": 54.53204803107586,
        "lon": -0.8243266500050866,
        "alt_km": 20474.626593453744,
        "timestamp": "2025-12-21T11:31:43.096622+00:00",
        "meta_object_name": "GPS BIIRM-1 (PRN 17)",
        "meta_object_id": "2005-038A",
        "meta_epoch": "2025-12-21T00:50:49.977024",
        "meta_mean_motion": 2.00577927,
        "meta_eccentricity": 0.0131381,
        "meta_inclination": 55.0245,
        "meta_ra_of_asc_node": 280.367,
        "meta_arg_of_pericenter": 293.7438,
        "meta_mean_anomaly": 187.6731,
        "meta_ephemeris_type": 0,
        "meta_classification_type": "U",
        "meta_norad_cat_id": 28874,
        "meta_element_set_no": 999,
        "meta_rev_at_epoch": 14826,
        "meta_bstar": 0,
        "meta_mean_motion_dot": -2.4e-07,
        "meta_mean_motion_ddot": 0,
        "tle_line1": "1 28874U 05038A   25355.03530066 -.00000024  00000+0  00000+0 0  9993",
        "tle_line2": "2 28874  55.0245 280.3670 0131381 293.7438 187.6731  2.00577927148264"
      },
      "geometry": {
        "type": "Point",
        "coordinates": [
          -0.8243266500050866,
          54.53204803107586
        ]
      }
    }
  ]
}